{
  "type": "FeatureCollection",
  "features": [
    {
      "type": "Feature",
      "properties": {
        "norad_id": 43260,
        "name": "GAOFEN-1 03",
        "group": "resource",
        "lat": 53.67599605938431,
        "lon": -133.82004239117754,
        "alt_km": 636.7594444370607,
        "timestamp": "2025-12-03T08:58:45.656772+00:00",
        "meta_object_name": "GAOFEN-1 03",
        "meta_object_id": "2018-031B",
        "meta_epoch": "2025-12-03T05:09:35.991360",
        "meta_mean_motion": 14.76403559,
        "meta_eccentricity": 0.0002647,
        "meta_inclination": 98.0812,
        "meta_ra_of_asc_node": 34.8782,
        "meta_arg_of_pericenter": 359.2522,
        "meta_mean_anomaly": 0.8683,
        "meta_ephemeris_type": 0,
        "meta_classification_type": "U",
        "meta_norad_cat_id": 43260,
        "meta_element_set_no": 999,
        "meta_rev_at_epoch": 41377,
        "meta_bstar": 0.00019757,
        "meta_mean_motion_dot": 1.321e-05,
        "meta_mean_motion_ddot": 0,
        "tle_line1": "1 43260U 18031B   25337.21499990  .00001321  00000+0  19757-3 0  9999",
        "tle_line2": "2 43260  98.0812  34.8782 0002647 359.2522   0.8683 14.76403559413775"
      },
      "geometry": {
        "type": "Point",
        "coordinates": [
          -133.82004239117754,
          53.67599605938431
        ]
      }
    },
    {
      "type": "Feature",
      "properties": {
        "norad_id": 43262,
        "name": "GAOFEN-1 04",
        "group": "resource",
        "lat": -72.48610089075999,
        "lon": -171.55723192946348,
        "alt_km": 648.8833060612533,
        "timestamp": "2025-12-03T08:58:45.656783+00:00",
        "meta_object_name": "GAOFEN-1 04",
        "meta_object_id": "2018-031D",
        "meta_epoch": "2025-12-03T04:34:39.160128",
        "meta_mean_motion": 14.7641661,
        "meta_eccentricity": 0.0001352,
        "meta_inclination": 98.0821,
        "meta_ra_of_asc_node": 35.0219,
        "meta_arg_of_pericenter": 62.4722,
        "meta_mean_anomaly": 297.6625,
        "meta_ephemeris_type": 0,
        "meta_classification_type": "U",
        "meta_norad_cat_id": 43262,
        "meta_element_set_no": 999,
        "meta_rev_at_epoch": 41376,
        "meta_bstar": 0.00020119,
        "meta_mean_motion_dot": 1.347e-05,
        "meta_mean_motion_ddot": 0,
        "tle_line1": "1 43262U 18031D   25337.19073102  .00001347  00000+0  20119-3 0  9993",
        "tle_line2": "2 43262  98.0821  35.0219 0001352  62.4722 297.6625 14.76416610413765"
      },
      "geometry": {
        "type": "Point",
        "coordinates": [
          -171.55723192946348,
          -72.48610089075999
        ]
      }
    },
    {
      "type": "Feature",
      "properties": {
        "norad_id": 43437,
        "name": "SENTINEL-3B",
        "group": "resource",
        "lat": -64.7845537312545,
        "lon": 61.50337033558326,
        "alt_km": 810.898461379933,
        "timestamp": "2025-12-03T08:58:45.656793+00:00",
        "meta_object_name": "SENTINEL-3B",
        "meta_object_id": "2018-039A",
        "meta_epoch": "2025-12-03T02:33:24.643008",
        "meta_mean_motion": 14.26736632,
        "meta_eccentricity": 0.000146,
        "meta_inclination": 98.628,
        "meta_ra_of_asc_node": 42.4293,
        "meta_arg_of_pericenter": 112.1017,
        "meta_mean_anomaly": 248.0318,
        "meta_ephemeris_type": 0,
        "meta_classification_type": "U",
        "meta_norad_cat_id": 43437,
        "meta_element_set_no": 999,
        "meta_rev_at_epoch": 39616,
        "meta_bstar": 0.00010575,
        "meta_mean_motion_dot": 2.12e-06,
        "meta_mean_motion_ddot": 0,
        "tle_line1": "1 43437U 18039A   25337.10653522  .00000212  00000+0  10575-3 0  9991",
        "tle_line2": "2 43437  98.6280  42.4293 0001460 112.1017 248.0318 14.26736632396165"
      },
      "geometry": {
        "type": "Point",
        "coordinates": [
          61.50337033558326,
          -64.7845537312545
        ]
      }
    },
    {
      "type": "Feature",
      "properties": {
        "norad_id": 43461,
        "name": "GAOFEN-5 01",
        "group": "resource",
        "lat": -48.97987828011018,
        "lon": 110.36149984124359,
        "alt_km": 699.6290633831932,
        "timestamp": "2025-12-03T08:58:45.656804+00:00",
        "meta_object_name": "GAOFEN-5 01",
        "meta_object_id": "2018-043A",
        "meta_epoch": "2025-12-03T04:38:32.252640",
        "meta_mean_motion": 14.60391713,
        "meta_eccentricity": 0.0001583,
        "meta_inclination": 98.4313,
        "meta_ra_of_asc_node": 299.9949,
        "meta_arg_of_pericenter": 10.8258,
        "meta_mean_anomaly": 349.2976,
        "meta_ephemeris_type": 0,
        "meta_classification_type": "U",
        "meta_norad_cat_id": 43461,
        "meta_element_set_no": 999,
        "meta_rev_at_epoch": 40308,
        "meta_bstar": 0.00015197,
        "meta_mean_motion_dot": 6.87e-06,
        "meta_mean_motion_ddot": 0,
        "tle_line1": "1 43461U 18043A   25337.19342885  .00000687  00000+0  15197-3 0  9990",
        "tle_line2": "2 43461  98.4313 299.9949 0001583  10.8258 349.2976 14.60391713403080"
      },
      "geometry": {
        "type": "Point",
        "coordinates": [
          110.36149984124359,
          -48.97987828011018
        ]
      }
    },
    {
      "type": "Feature",
      "properties": {
        "norad_id": 43484,
        "name": "GAOFEN-6",
        "group": "resource",
        "lat": 41.1294668878184,
        "lon": 35.07629296046624,
        "alt_km": 630.9475218159441,
        "timestamp": "2025-12-03T08:58:45.656814+00:00",
        "meta_object_name": "GAOFEN-6",
        "meta_object_id": "2018-048A",
        "meta_epoch": "2025-12-03T03:54:44.976384",
        "meta_mean_motion": 14.76535982,
        "meta_eccentricity": 0.0013324,
        "meta_inclination": 97.8045,
        "meta_ra_of_asc_node": 41.7512,
        "meta_arg_of_pericenter": 91.9195,
        "meta_mean_anomaly": 268.3541,
        "meta_ephemeris_type": 0,
        "meta_classification_type": "U",
        "meta_norad_cat_id": 43484,
        "meta_element_set_no": 999,
        "meta_rev_at_epoch": 40446,
        "meta_bstar": 7.8379e-05,
        "meta_mean_motion_dot": 4.98e-06,
        "meta_mean_motion_ddot": 0,
        "tle_line1": "1 43484U 18048A   25337.16302056  .00000498  00000+0  78379-4 0  9995",
        "tle_line2": "2 43484  97.8045  41.7512 0013324  91.9195 268.3541 14.76535982404462"
      },
      "geometry": {
        "type": "Point",
        "coordinates": [
          35.07629296046624,
          41.1294668878184
        ]
      }
    },
    {
      "type": "Feature",
      "properties": {
        "norad_id": 43585,
        "name": "GAOFEN-11 01",
        "group": "resource",
        "lat": -69.69605955300166,
        "lon": 60.24702153029716,
        "alt_km": 426.06652389344526,
        "timestamp": "2025-12-03T08:58:45.656830+00:00",
        "meta_object_name": "GAOFEN-11 01",
        "meta_object_id": "2018-063A",
        "meta_epoch": "2025-12-03T04:37:59.719584",
        "meta_mean_motion": 15.48806628,
        "meta_eccentricity": 0.0004992,
        "meta_inclination": 97.1582,
        "meta_ra_of_asc_node": 40.2101,
        "meta_arg_of_pericenter": 354.6902,
        "meta_mean_anomaly": 5.4295,
        "meta_ephemeris_type": 0,
        "meta_classification_type": "U",
        "meta_norad_cat_id": 43585,
        "meta_element_set_no": 999,
        "meta_rev_at_epoch": 40994,
        "meta_bstar": 0.00034384,
        "meta_mean_motion_dot": 0.00018415,
        "meta_mean_motion_ddot": 0,
        "tle_line1": "1 43585U 18063A   25337.19305231  .00018415  00000+0  34384-3 0  9990",
        "tle_line2": "2 43585  97.1582  40.2101 0004992 354.6902   5.4295 15.48806628409949"
      },
      "geometry": {
        "type": "Point",
        "coordinates": [
          60.24702153029716,
          -69.69605955300166
        ]
      }
    },
    {
      "type": "Feature",
      "properties": {
        "norad_id": 43613,
        "name": "ICESAT-2",
        "group": "resource",
        "lat": 7.333329304510776,
        "lon": -122.0494237682036,
        "alt_km": 483.36552002441476,
        "timestamp": "2025-12-03T08:58:45.656841+00:00",
        "meta_object_name": "ICESAT-2",
        "meta_object_id": "2018-070A",
        "meta_epoch": "2025-12-03T04:13:57.618912",
        "meta_mean_motion": 15.28214756,
        "meta_eccentricity": 2.99e-05,
        "meta_inclination": 92.0056,
        "meta_ra_of_asc_node": 238.1556,
        "meta_arg_of_pericenter": 111.1358,
        "meta_mean_anomaly": 248.9923,
        "meta_ephemeris_type": 0,
        "meta_classification_type": "U",
        "meta_norad_cat_id": 43613,
        "meta_element_set_no": 999,
        "meta_rev_at_epoch": 40252,
        "meta_bstar": 0.00070884,
        "meta_mean_motion_dot": 0.00019502,
        "meta_mean_motion_ddot": 0,
        "tle_line1": "1 43613U 18070A   25337.17636133  .00019502  00000+0  70884-3 0  9999",
        "tle_line2": "2 43613  92.0056 238.1556 0000299 111.1358 248.9923 15.28214756402522"
      },
      "geometry": {
        "type": "Point",
        "coordinates": [
          -122.0494237682036,
          7.333329304510776
        ]
      }
    }
  ]
}